NORAD_CAT_ID,OBJECT_NAME,OBJECT_TYPE,EPOCH,MEAN_MOTION,ECCENTRICITY,INCLINATION,RA_OF_ASC_NODE,ARG_OF_PERICENTER,MEAN_ANOMALY,BSTAR,MEAN_MOTION_DOT,MEAN_MOTION_DDOT,TLE_LINE0,TLE_LINE1,TLE_LINE2,SEMIMAJOR_AXIS,PERIOD,APOGEE,PERIGEE,DECAYED
48148,STARLINK-2491,PAYLOAD,2022-08-25 04:11:24,15.06394308,0.0001628,53.0539,213.9395,65.9315,294.1844,7.3148e-05,8.08e-06,0.0,0 STARLINK-2491,1 48148U 21027BJ  22237.17458497  .00000808  00000-0  73148-4 0  9991,2 48148  53.0539 213.9395 0001628  65.9315 294.1844 15.06394308 77207,6925.366,95.593,548.3580000000002,546.104,0.0
48148,STARLINK-2491,PAYLOAD,2022-08-25 08:58:02,15.06383583,0.0001599,53.0537,213.046,65.9552,294.1604,-2.5e-05,-6.54e-06,0.0,0 STARLINK-2491,1 48148U 21027BJ  22237.37363604 -.00000654  00000-0 -25000-4 0  9993,2 48148  53.0537 213.0460 0001599  65.9552 294.1604 15.06383583 77239,6925.399,95.593,548.371,546.1569999999998,0.0
48148,STARLINK-2491,PAYLOAD,2022-08-25 15:20:11,15.06384255,0.0001604,53.0537,211.8546,65.9843,294.1313,-3.7361e-05,-8.38e-06,0.0,0 STARLINK-2491,1 48148U 21027BJ  22237.63902521 -.00000838  00000-0 -37361-4 0  9996,2 48148  53.0537 211.8546 0001604  65.9843 294.1313 15.06384255 77661,6925.397,95.593,548.373,546.151,0.0
48148,STARLINK-2491,PAYLOAD,2022-08-26 07:15:35,15.0638913,0.0001601,53.0534,208.8759,66.4186,293.6971,-2.1142e-05,-5.96e-06,0.0,0 STARLINK-2491,1 48148U 21027BJ  22238.30249427 -.00000596  00000-0 -21142-4 0  9991,2 48148  53.0534 208.8759 0001601  66.4186 293.6971 15.06389130 77372,6925.382,95.593,548.356,546.138,0.0
48148,STARLINK-2491,PAYLOAD,2022-08-26 15:13:17,15.06390207,0.0001589,53.0534,207.3867,66.7473,293.3683,-1.4805e-05,-5.02e-06,0.0,0 STARLINK-2491,1 48148U 21027BJ  22238.63422929 -.00000502  00000-0 -14805-4 0  9992,2 48148  53.0534 207.3867 0001589  66.7473 293.3683 15.06390207 77816,6925.379,95.593,548.344,546.143,0.0
48148,STARLINK-2491,PAYLOAD,2022-08-27 10:19:45,15.06388888,0.0001653,53.0535,203.8129,66.7598,293.3565,0.0001227,1.546e-05,0.0,0 STARLINK-2491,1 48148U 21027BJ  22239.43039299  .00001546  00000-0  12270-3 0  9995,2 48148  53.0535 203.8129 0001653  66.7598 293.3565 15.06388888 77933,6925.3830000000025,95.593,548.3919999999998,546.1030000000002,0.0
48148,STARLINK-2491,PAYLOAD,2022-08-27 21:28:32,15.06395204,0.00016659999999999998,53.0536,201.7278,67.7132,292.4033,0.00012281,1.548e-05,0.0,0 STARLINK-2491,1 48148U 21027BJ  22239.89481953  .00001548  00000-0  12281-3 0  9997,2 48148  53.0536 201.7278 0001666  67.7132 292.4033 15.06395204 78004,6925.363,95.592,548.382,546.0740000000002,0.0
48148,STARLINK-2491,PAYLOAD,2022-08-28 07:01:46,15.06400681,0.0001709,53.0536,199.9407,68.0422,292.0749,0.0001654,2.183e-05,0.0,0 STARLINK-2491,1 48148U 21027BJ  22240.29289723  .00002183  00000-0  16540-3 0  9992,2 48148  53.0536 199.9407 0001709  68.0422 292.0749 15.06400681 77678,6925.346,95.592,548.395,546.028,0.0
48148,STARLINK-2491,PAYLOAD,2022-08-28 14:59:27,15.06404767,0.0001745,53.0539,198.4514,68.1487,291.9687,0.00018291,2.444e-05,0.0,0 STARLINK-2491,1 48148U 21027BJ  22240.62462839  .00002444  00000-0  18291-3 0  9995,2 48148  53.0539 198.4514 0001745  68.1487 291.9687 15.06404767 78114,6925.334,95.592,548.4069999999998,545.99,0.0
48148,STARLINK-2491,PAYLOAD,2022-08-29 03:43:46,15.06412373,0.0001754,53.0537,196.0688,69.748,290.3698,0.00020826,2.823e-05,0.0,0 STARLINK-2491,1 48148U 21027BJ  22241.15539649  .00002823  00000-0  20826-3 0  9996,2 48148  53.0537 196.0688 0001754  69.7480 290.3698 15.06412373 78193,6925.311,95.591,548.39,545.961,0.0
48148,STARLINK-2491,PAYLOAD,2022-08-29 21:14:42,15.06406884,0.0001802,53.0534,192.7922,72.4908,287.6278,9.4446e-05,1.126e-05,0.0,0 STARLINK-2491,1 48148U 21027BJ  22241.88521765  .00001126  00000-0  94446-4 0  9991,2 48148  53.0534 192.7922 0001802  72.4908 287.6278 15.06406884 77916,6925.3269999999975,95.592,548.44,545.945,0.0
48148,STARLINK-2491,PAYLOAD,2022-08-30 06:47:56,15.0640449,0.00020180000000000005,53.0549,191.0071,68.2324,291.888,4.2856e-05,3.57e-06,0.0,0 STARLINK-2491,1 48148U 21027BJ  22242.28329743  .00000357  00000-0  42856-4 0  9991,2 48148  53.0549 191.0071 0002018  68.2324 291.8880 15.06404490 78361,6925.335,95.592,548.597,545.802,0.0
48148,STARLINK-2491,PAYLOAD,2022-08-31 06:41:01,15.06408081,0.0001792,53.0542,186.5386,71.60600000000002,288.5123,8.8543e-06,-1.5e-06,0.0,0 STARLINK-2491,1 48148U 21027BJ  22243.27849422 -.00000150  00000-0  88543-5 0  9998,2 48148  53.0542 186.5386 0001792  71.6060 288.5123 15.06408081 78515,6925.324000000001,95.592,548.43,545.948,0.0
48148,STARLINK-2491,PAYLOAD,2022-09-01 04:58:35,15.06396601,0.0001747,53.0547,182.3672,74.2411,285.8771,-1.0598e-05,-4.39e-06,0.0,0 STARLINK-2491,1 48148U 21027BJ  22244.20735898 -.00000439  00000-0 -10598-4 0  9998,2 48148  53.0547 182.3672 0001747  74.2411 285.8771 15.06396601 78266,6925.359,95.592,548.434,546.014,0.0
48148,STARLINK-2491,PAYLOAD,2022-09-01 12:56:17,15.06404131,0.0001724,53.0546,180.8778,73.0654,287.0524,5.1249e-05,4.82e-06,0.0,0 STARLINK-2491,1 48148U 21027BJ  22244.53908781  .00000482  00000-0  51249-4 0  9991,2 48148  53.0546 180.8778 0001724  73.0654 287.0524 15.06404131 78310,6925.3359999999975,95.592,548.395,546.007,0.0
48148,STARLINK-2491,PAYLOAD,2022-09-02 12:49:22,15.06400007,0.0001604,53.0537,176.41099999999997,71.9307,288.1856,4.5172e-05,3.91e-06,0.0,0 STARLINK-2491,1 48148U 21027BJ  22245.53429177  .00000391  00000-0  45172-4 0  9996,2 48148  53.0537 176.4110 0001604  71.9307 288.1856 15.06400007 78464,6925.349,95.592,548.3240000000002,546.1030000000002,0.0
48148,STARLINK-2491,PAYLOAD,2022-09-03 04:44:46,15.06402692,0.0001589,53.0539,173.43099999999995,72.8735,287.2428,0.00013319,1.703e-05,0.0,0 STARLINK-2491,1 48148U 21027BJ  22246.19775811  .00001703  00000-0  13319-3 0  9993,2 48148  53.0539 173.4310 0001589  72.8735 287.2428 15.06402692 78953,6925.34,95.592,548.306,546.105,0.0
48148,STARLINK-2491,PAYLOAD,2022-09-04 04:37:51,15.06403975,0.0001617,53.0548,168.9621,84.389,275.7283,4.3273e-05,3.63e-06,0.0,0 STARLINK-2491,1 48148U 21027BJ  22247.19295835  .00000363  00000-0  43273-4 0  9991,2 48148  53.0548 168.9621 0001617  84.3890 275.7283 15.06403975 79103,6925.3359999999975,95.592,548.321,546.082,0.0
48148,STARLINK-2491,PAYLOAD,2022-09-05 04:30:56,15.06410968,0.00017819999999999994,53.0523,164.4996,54.3889,305.7266,0.00014022,1.808e-05,0.0,0 STARLINK-2491,1 48148U 21027BJ  22248.18815140  .00001808  00000-0  14022-3 0  9992,2 48148  53.0523 164.4996 0001782  54.3889 305.7266 15.06410968 78867,6925.315,95.591,548.414,545.946,0.0
48148,STARLINK-2491,PAYLOAD,2022-09-06 04:24:03,15.06388737,0.00015230000000000002,53.0533,160.031,71.6837,288.4317,-0.00016016,-2.666e-05,0.0,0 STARLINK-2491,1 48148U 21027BJ  22249.18336954 -.00002666  00000-0 -16016-3 0  9994,2 48148  53.0533 160.0310 0001523  71.6837 288.4317 15.06388737 79018,6925.3830000000025,95.593,548.303,546.193,0.0
48148,STARLINK-2491,PAYLOAD,2022-09-06 18:43:55,15.06378523,0.00017690000000000002,53.0544,157.349,72.1633,287.9548,-0.00012847,-2.193e-05,0.0,0 STARLINK-2491,1 48148U 21027BJ  22249.78050049 -.00002193  00000-0 -12847-3 0  9991,2 48148  53.0544 157.3490 0001769  72.1633 287.9548 15.06378523 79102,6925.4140000000025,95.594,548.504,546.054,0.0
48148,STARLINK-2491,PAYLOAD,2022-09-07 04:17:09,15.06378436,0.00017549999999999998,53.0542,155.5618,71.7177,288.4003,-0.00011711,-2.024e-05,0.0,0 STARLINK-2491,1 48148U 21027BJ  22250.17858617 -.00002024  00000-0 -11711-3 0  9995,2 48148  53.0542 155.5618 0001755  71.7177 288.4003 15.06378436 79559,6925.415,95.594,548.495,546.064,0.0
48148,STARLINK-2491,PAYLOAD,2022-09-08 02:34:43,15.06359165,0.00019,53.054,151.3917,78.7986,281.3217,0.00050724,7.274e-05,0.0,0 STARLINK-2491,1 48148U 21027BJ  22251.10744904  .00007274  00000-0  50724-3 0  9999,2 48148  53.0540 151.3917 0001900  78.7986 281.3217 15.06359165 79300,6925.474,95.595,548.655,546.023,0.0
48148,STARLINK-2491,PAYLOAD,2022-09-08 10:32:24,15.06387639,0.0001742,53.054,149.9027,75.8621,284.2561,0.00028449,3.957e-05,0.0,0 STARLINK-2491,1 48148U 21027BJ  22251.43917476  .00003957  00000-0  28449-3 0  9994,2 48148  53.0540 149.9027 0001742  75.8621 284.2561 15.06387639 79742,6925.386,95.593,548.4580000000002,546.045,0.0
48148,STARLINK-2491,PAYLOAD,2022-09-08 16:54:34,15.06392346,0.00016680000000000002,53.0541,148.7108,76.9457,283.1718,0.00032109,4.503e-05,0.0,0 STARLINK-2491,1 48148U 21027BJ  22251.70456134  .00004503  00000-0  32109-3 0  9999,2 48148  53.0541 148.7108 0001668  76.9457 283.1718 15.06392346 79783,6925.3719999999985,95.593,548.3919999999998,546.082,0.0
48148,STARLINK-2491,PAYLOAD,2022-09-09 02:27:48,15.06409112,0.00017590000000000002,53.0535,146.9247,74.8191,285.2992,0.00056376,8.128e-05,0.0,0 STARLINK-2491,1 48148U 21027BJ  22252.10264083  .00008128  00000-0  56376-3 0  9993,2 48148  53.0535 146.9247 0001759  74.8191 285.2992 15.06409112 79847,6925.321,95.592,548.404,545.967,0.0
48148,STARLINK-2491,PAYLOAD,2022-09-09 16:47:39,15.06407112,0.000187,53.0522,144.2443,75.9919,284.1278,0.00017952,2.394e-05,0.0,0 STARLINK-2491,1 48148U 21027BJ  22252.69976195  .00002394  00000-0  17952-3 0  9997,2 48148  53.0522 144.2443 0001870  75.9919 284.1278 15.06407112 79939,6925.3269999999975,95.592,548.487,545.8969999999998,0.0
48148,STARLINK-2491,PAYLOAD,2022-09-10 02:20:53,15.06410261,0.0001606,53.0537,142.4563,76.0969,284.0198,0.00019002,2.551e-05,0.0,0 STARLINK-2491,1 48148U 21027BJ  22253.09783955  .00002551  00000-0  19002-3 0  9995,2 48148  53.0537 142.4563 0001606  76.0969 284.0198 15.06410261 79997,6925.316999999999,95.591,548.294,546.07,0.0
48148,STARLINK-2491,PAYLOAD,2022-09-10 16:40:44,15.06403109,0.000164,53.0538,139.7756,79.2724,280.8449,2.1709e-06,-2.49e-06,0.0,0 STARLINK-2491,1 48148U 21027BJ  22253.69496091 -.00000249  00000-0  21709-5 0  9995,2 48148  53.0538 139.7756 0001640  79.2724 280.8449 15.06403109 79696,6925.339,95.592,548.34,546.068,0.0
